[{"OBJECT_NAME":"STARLINK-1327","OBJECT_ID":"2020-025AA","EPOCH":"2026-03-10T00:00:02.999808","MEAN_MOTION":15.54084798,"ECCENTRICITY":0.00066285,"INCLINATION":53.0481,"RA_OF_ASC_NODE":65.1345,"ARG_OF_PERICENTER":60.0228,"MEAN_ANOMALY":82.823,"EPHEMERIS_TYPE":0,"CLASSIFICATION_TYPE":"U","NORAD_CAT_ID":45555,"ELEMENT_SET_NO":999,"REV_AT_EPOCH":591,"BSTAR":0.0019393015,"MEAN_MOTION_DOT":0.00129734,"MEAN_MOTION_DDOT":0},{"OBJECT_NAME":"RISAT-1","OBJECT_ID":"2012-017A","EPOCH":"2026-03-09T15:46:35.917824","MEAN_MOTION":15.57540889,"ECCENTRICITY":0.00036553,"INCLINATION":97.4526,"RA_OF_ASC_NODE":111.2793,"ARG_OF_PERICENTER":120.4125,"MEAN_ANOMALY":239.7492,"EPHEMERIS_TYPE":0,"CLASSIFICATION_TYPE":"U","NORAD_CAT_ID":38248,"ELEMENT_SET_NO":999,"REV_AT_EPOCH":76654,"BSTAR":0.00057862744,"MEAN_MOTION_DOT":0.00042667,"MEAN_MOTION_DDOT":0}]
